*******************************************************************************
JPL/HORIZONS                      (2024 SJ)                2025-Sep-13 11:12:34
Rec #:50613969 (+COV) Soln.date: 2024-Oct-27_06:20:47       # obs: 43 (35 days)
 
IAU76/J2000 helio. ecliptic osc. elements (au, days, deg., period=Julian yrs):
 
  EPOCH=  2460584.5 ! 2024-Oct-01.00 (TDB)         Residual RMS= .31228
   EC= .2627933631643578   QR= 1.054588847594076   TP= 2460563.4522886011
   OM= 194.5256065989044   W=  152.1746754792736   IN= 8.780030622030887
   A= 1.430520012843011    MA= 12.12461751553085   ADIST= 1.806451178091946
   PER= 1.711              N= .5760539609999999    ANGMOM= .01985131
   DAN= 1.73494            DDN= 1.08059            L= 346.9781527
   B= 4.0857622            MOID= .0685252          TP= 2024-Sep-09.9522886011
 
Asteroid physical parameters (km, seconds, rotational period in hours):
   GM= n.a.                RAD= n.a.               ROTPER= n.a.
   H= 25.56                G= .150                 B-V= n.a.
                           ALBEDO= n.a.            STYP= n.a.

ASTEROID comments: 
1: soln ref.= JPL#9, OCC=7
2: source=ORB
*******************************************************************************


*******************************************************************************
Ephemeris / WWW_USER Sat Sep 13 11:12:34 2025 Pasadena, USA      / Horizons    
*******************************************************************************
Target body name: (2024 SJ)                       {source: JPL#9}
Center body name: Earth (399)                     {source: DE441}
Center-site name: Cerro Tololo Observatory, La Serena
*******************************************************************************
Start time      : A.D. 2024-Sep-05 00:00:00.0000 UT      
Stop  time      : A.D. 2024-Sep-09 23:00:00.0000 UT      
Step-size       : 45 minutes
*******************************************************************************
Target pole/equ : undefined
Target radii    : undefined                                                    
Center geodetic : 289.1941, -30.1691165, 2.38888  {E-lon(deg),Lat(deg),Alt(km)}
Center cylindric: 289.1941,5520.92438,-3187.79599 {E-lon(deg),Dxy(km),Dz(km)}
Center pole/equ : ITRF93                          {East-longitude positive}
Center radii    : 6378.137, 6378.137, 6356.752 km {Equator_a, b, pole_c}       
Target primary  : Sun
Vis. interferer : MOON (R_eq= 1737.400) km        {source: DE441}
Rel. light bend : Sun                             {source: DE441}
Rel. lght bnd GM: 1.3271E+11 km^3/s^2                                          
Small-body perts: Yes                             {source: SB441-N16}
Atmos refraction: NO (AIRLESS)
RA format       : DEG
Time format     : JD  
Calendar mode   : Mixed Julian/Gregorian
EOP file        : eop.250912.p251208                                           
EOP coverage    : DATA-BASED 1962-JAN-20 TO 2025-SEP-12. PREDICTS-> 2025-DEC-07
Units conversion: 1 au= 149597870.700 km, c= 299792.458 km/s, 1 day= 86400.0 s 
Table cut-offs 1: Elevation (-90.0deg=NO ),Airmass (>38.000=NO), Daylight (NO )
Table cut-offs 2: Solar elongation (  0.0,180.0=NO ),Local Hour Angle( 0.0=NO )
Table cut-offs 3: RA/DEC angular rate (     0.0=NO )                           
Table format    : Comma Separated Values (spreadsheet)
*******************************************************************************
Initial IAU76/J2000 heliocentric ecliptic osculating elements (au, days, deg.):
  EPOCH=  2460584.5 ! 2024-Oct-01.00 (TDB)         Residual RMS= .31228        
   EC= .2627933631643578   QR= 1.054588847594076   TP= 2460563.4522886011      
   OM= 194.5256065989044   W=  152.1746754792736   IN= 8.780030622030887       
  Equivalent ICRF heliocentric cartesian coordinates (au, au/d):
   X= 1.059005307832109E+00  Y= 1.308394442651586E-01  Z= 7.689288521289614E-02
  VX=-1.124766456693616E-03 VY= 1.795970042169913E-02 VZ= 4.746105245982697E-03
Asteroid physical parameters (km, seconds, rotational period in hours):        
   GM= n.a.                RAD= n.a.               ROTPER= n.a.                
   H= 25.56                G= .150                 B-V= n.a.                   
                           ALBEDO= n.a.            STYP= n.a.                  
***********************************************************************************
Date_________JDUT, , , R.A.___(ICRF), DEC____(ICRF),             delta,     deldot,
***********************************************************************************
$$SOE
2460562.500000000, ,m, 310.684187033,  45.227737967,  0.08974813888276, -3.7219094,
2460562.531250000, ,m, 310.739813463,  45.221008504,  0.08968142038054, -3.6703845,
2460562.562500000, ,m, 310.795043564,  45.213627457,  0.08961567137955, -3.6148044,
2460562.593750000, ,m, 310.850117048,  45.205557813,  0.08955094701818, -3.5571891,
2460562.625000000, ,m, 310.905283437,  45.196786653,  0.08948726515093, -3.4996369,
2460562.656250000, ,m, 310.960792460,  45.187325678,  0.08942460566220, -3.4442435,
2460562.687500000, , , 311.016884442,  45.177210772,  0.08936291123582, -3.3930222,
2460562.718750000, , , 311.073781043,  45.166500631,  0.08930208955091, -3.3478262,
2460562.750000000, , , 311.131676723,  45.155274506,  0.08924201681925, -3.3102780,
2460562.781250000, , , 311.190731264,  45.143629159,  0.08918254252787, -3.2817070,
2460562.812500000, , , 311.251063628,  45.131675139,  0.08912349520386, -3.2630989,
2460562.843750000, , , 311.312747404,  45.119532532,  0.08906468897959, -3.2550582,
2460562.875000000, , , 311.375807999,  45.107326358,  0.08900593070602, -3.2577847,
2460562.906250000,A, , 311.440221672,  45.095181777,  0.08894702734130, -3.2710666,
2460562.937500000,C, , 311.505916459,  45.083219302,  0.08888779333223, -3.2942887,
2460562.968750000,*, , 311.572774925,  45.071550198,  0.08882805770667, -3.3264556,
2460563.000000000,*, , 311.640638641,  45.060272232,  0.08876767060708, -3.3662305,
2460563.031250000,*, , 311.709314215,  45.049465951,  0.08870650901706, -3.4119854,
2460563.062500000,*, , 311.778580630,  45.039191603,  0.08864448146357, -3.4618640,
2460563.093750000,*,m, 311.848197634,  45.029486835,  0.08858153151723, -3.5138519,
2460563.125000000,*,m, 311.917914850,  45.020365239,  0.08851763995787, -3.5658534,
2460563.156250000,*,m, 311.987481270,  45.011815807,  0.08845282552374, -3.6157713,
2460563.187500000,*,m, 312.056654788,  45.003803312,  0.08838714421569, -3.6615869,
2460563.218750000,*,m, 312.125211407,  44.996269605,  0.08832068718215, -3.7014366,
2460563.250000000,*,m, 312.192953785,  44.989135779,  0.08825357726451, -3.7336833,
2460563.281250000,*,m, 312.259718791,  44.982305124,  0.08818596433285, -3.7569786,
2460563.312500000,*,m, 312.325383787,  44.975666767,  0.08811801958798, -3.7703148,
2460563.343750000,*,m, 312.389871391,  44.969099860,  0.08804992904541, -3.7730632,
2460563.375000000,*,m, 312.453152541,  44.962478163,  0.08798188644824, -3.7649990,
2460563.406250000,*,m, 312.515247712,  44.955674850,  0.08791408587836, -3.7463097,
2460563.437500000,*,m, 312.576226253,  44.948567356,  0.08784671434785, -3.7175888,
